{
  "type": "FeatureCollection",
  "features": [
    {
      "type": "Feature",
      "properties": {
        "norad_id": 30893,
        "name": "FENGYUN 1C DEB",
        "group": "fengyun-1c-debris",
        "lat": 77.21679705726193,
        "lon": -13.274444958737671,
        "alt_km": 704.1282417534158,
        "timestamp": "2025-12-26T19:22:39.186142+00:00",
        "meta_object_name": "FENGYUN 1C DEB",
        "meta_object_id": "1999-025AYF",
        "meta_epoch": "2025-12-24T21:04:37.253280",
        "meta_mean_motion": 13.94098016,
        "meta_eccentricity": 0.0309071,
        "meta_inclination": 98.2549,
        "meta_ra_of_asc_node": 24.7778,
        "meta_arg_of_pericenter": 59.0037,
        "meta_mean_anomaly": 62.9275,
        "meta_ephemeris_type": 0,
        "meta_classification_type": "U",
        "meta_norad_cat_id": 30893,
        "meta_element_set_no": 999,
        "meta_rev_at_epoch": 95054,
        "meta_bstar": 0.00083697,
        "meta_mean_motion_dot": 1.612e-05,
        "meta_mean_motion_ddot": 0,
        "tle_line1": "1 30893U 99025AYF 25358.87820895  .00001612  00000+0  83697-3 0  9993",
        "tle_line2": "2 30893  98.2549  24.7778 0309071  59.0037  62.9275 13.94098016950546"
      },
      "geometry": {
        "type": "Point",
        "coordinates": [
          -13.274444958737671,
          77.21679705726193
        ]
      }
    },
    {
      "type": "Feature",
      "properties": {
        "norad_id": 30895,
        "name": "FENGYUN 1C DEB",
        "group": "fengyun-1c-debris",
        "lat": 65.76608201937727,
        "lon": 49.43442141789553,
        "alt_km": 629.197779508735,
        "timestamp": "2025-12-26T19:22:39.186152+00:00",
        "meta_object_name": "FENGYUN 1C DEB",
        "meta_object_id": "1999-025AYH",
        "meta_epoch": "2025-12-26T04:13:36.043968",
        "meta_mean_motion": 14.31575583,
        "meta_eccentricity": 0.02181535,
        "meta_inclination": 98.7175,
        "meta_ra_of_asc_node": 68.7297,
        "meta_arg_of_pericenter": 84.7817,
        "meta_mean_anomaly": 331.6331,
        "meta_ephemeris_type": 0,
        "meta_classification_type": "U",
        "meta_norad_cat_id": 30895,
        "meta_element_set_no": 999,
        "meta_rev_at_epoch": 97985,
        "meta_bstar": 0.00027003138,
        "meta_mean_motion_dot": 8.84e-06,
        "meta_mean_motion_ddot": 0,
        "tle_line1": "1 30895U 99025AYH 25360.17611162  .00000884  00000+0  27003-3 0  9995",
        "tle_line2": "2 30895  98.7175  68.7297 0218153  84.7817 331.6331 14.31575583979858"
      },
      "geometry": {
        "type": "Point",
        "coordinates": [
          49.43442141789553,
          65.76608201937727
        ]
      }
    },
    {
      "type": "Feature",
      "properties": {
        "norad_id": 30898,
        "name": "FENGYUN 1C DEB",
        "group": "fengyun-1c-debris",
        "lat": 9.228874468858548,
        "lon": 96.56337271567688,
        "alt_km": 501.45722452580867,
        "timestamp": "2025-12-26T19:22:39.186162+00:00",
        "meta_object_name": "FENGYUN 1C DEB",
        "meta_object_id": "1999-025AYL",
        "meta_epoch": "2025-12-25T00:05:27.139776",
        "meta_mean_motion": 15.23871046,
        "meta_eccentricity": 0.00415773,
        "meta_inclination": 99.0256,
        "meta_ra_of_asc_node": 272.9152,
        "meta_arg_of_pericenter": 73.1873,
        "meta_mean_anomaly": 287.3914,
        "meta_ephemeris_type": 0,
        "meta_classification_type": "U",
        "meta_norad_cat_id": 30898,
        "meta_element_set_no": 999,
        "meta_rev_at_epoch": 66558,
        "meta_bstar": 0.0036665107,
        "meta_mean_motion_dot": 0.00091568,
        "meta_mean_motion_ddot": 0,
        "tle_line1": "1 30898U 99025AYL 25359.00378634  .00091568  00000+0  36665-2 0  9994",
        "tle_line2": "2 30898  99.0256 272.9152 0041577  73.1873 287.3914 15.23871046665583"
      },
      "geometry": {
        "type": "Point",
        "coordinates": [
          96.56337271567688,
          9.228874468858548
        ]
      }
    },
    {
      "type": "Feature",
      "properties": {
        "norad_id": 30899,
        "name": "FENGYUN 1C DEB",
        "group": "fengyun-1c-debris",
        "lat": -60.565424868515,
        "lon": 62.511811999067646,
        "alt_km": 764.5977771794278,
        "timestamp": "2025-12-26T19:22:39.186187+00:00",
        "meta_object_name": "FENGYUN 1C DEB",
        "meta_object_id": "1999-025AYM",
        "meta_epoch": "2025-12-25T12:41:08.078208",
        "meta_mean_motion": 14.33767723,
        "meta_eccentricity": 0.0030467,
        "meta_inclination": 99.1766,
        "meta_ra_of_asc_node": 257.8035,
        "meta_arg_of_pericenter": 253.0754,
        "meta_mean_anomaly": 231.7257,
        "meta_ephemeris_type": 0,
        "meta_classification_type": "U",
        "meta_norad_cat_id": 30899,
        "meta_element_set_no": 999,
        "meta_rev_at_epoch": 96838,
        "meta_bstar": 0.002155,
        "meta_mean_motion_dot": 5.975e-05,
        "meta_mean_motion_ddot": 0,
        "tle_line1": "1 30899U 99025AYM 25359.52856572  .00005975  00000+0  21550-2 0  9998",
        "tle_line2": "2 30899  99.1766 257.8035 0030467 253.0754 231.7257 14.33767723968389"
      },
      "geometry": {
        "type": "Point",
        "coordinates": [
          62.511811999067646,
          -60.565424868515
        ]
      }
    },
    {
      "type": "Feature",
      "properties": {
        "norad_id": 30903,
        "name": "FENGYUN 1C DEB",
        "group": "fengyun-1c-debris",
        "lat": -14.994515767460866,
        "lon": -110.76428248911924,
        "alt_km": 882.4334226916881,
        "timestamp": "2025-12-26T19:22:39.186197+00:00",
        "meta_object_name": "FENGYUN 1C DEB",
        "meta_object_id": "1999-025AYR",
        "meta_epoch": "2025-12-23T22:43:24.937824",
        "meta_mean_motion": 13.97601805,
        "meta_eccentricity": 0.0096602,
        "meta_inclination": 99.3704,
        "meta_ra_of_asc_node": 243.7838,
        "meta_arg_of_pericenter": 63.0235,
        "meta_mean_anomaly": 298.0753,
        "meta_ephemeris_type": 0,
        "meta_classification_type": "U",
        "meta_norad_cat_id": 30903,
        "meta_element_set_no": 999,
        "meta_rev_at_epoch": 68861,
        "meta_bstar": 1.9133e-05,
        "meta_mean_motion_dot": -1.8e-07,
        "meta_mean_motion_ddot": 0,
        "tle_line1": "1 30903U 99025AYR 25357.94681641 -.00000018  00000+0  19133-4 0  9991",
        "tle_line2": "2 30903  99.3704 243.7838 0096602  63.0235 298.0753 13.97601805688619"
      },
      "geometry": {
        "type": "Point",
        "coordinates": [
          -110.76428248911924,
          -14.994515767460866
        ]
      }
    },
    {
      "type": "Feature",
      "properties": {
        "norad_id": 30905,
        "name": "FENGYUN 1C DEB",
        "group": "fengyun-1c-debris",
        "lat": -74.57167862057545,
        "lon": 110.75795602915257,
        "alt_km": 858.6199272219983,
        "timestamp": "2025-12-26T19:22:39.186208+00:00",
        "meta_object_name": "FENGYUN 1C DEB",
        "meta_object_id": "1999-025AYT",
        "meta_epoch": "2025-12-26T11:16:23.556576",
        "meta_mean_motion": 14.17902323,
        "meta_eccentricity": 0.00561195,
        "meta_inclination": 98.8879,
        "meta_ra_of_asc_node": 75.8789,
        "meta_arg_of_pericenter": 41.7446,
        "meta_mean_anomaly": 318.799,
        "meta_ephemeris_type": 0,
        "meta_classification_type": "U",
        "meta_norad_cat_id": 30905,
        "meta_element_set_no": 999,
        "meta_rev_at_epoch": 96317,
        "meta_bstar": 0.0011533351,
        "meta_mean_motion_dot": 2.35e-05,
        "meta_mean_motion_ddot": 0,
        "tle_line1": "1 30905U 99025AYT 25360.46971709  .00002350  00000+0  11533-2 0  9995",
        "tle_line2": "2 30905  98.8879  75.8789 0056119  41.7446 318.7990 14.17902323963175"
      },
      "geometry": {
        "type": "Point",
        "coordinates": [
          110.75795602915257,
          -74.57167862057545
        ]
      }
    },
    {
      "type": "Feature",
      "properties": {
        "norad_id": 30907,
        "name": "FENGYUN 1C DEB",
        "group": "fengyun-1c-debris",
        "lat": 76.11872802778215,
        "lon": -112.2561940132165,
        "alt_km": 793.9435755493841,
        "timestamp": "2025-12-26T19:22:39.186218+00:00",
        "meta_object_name": "FENGYUN 1C DEB",
        "meta_object_id": "1999-025AYV",
        "meta_epoch": "2025-12-24T21:05:44.215008",
        "meta_mean_motion": 14.15129204,
        "meta_eccentricity": 0.0056279,
        "meta_inclination": 99.9513,
        "meta_ra_of_asc_node": 20.3271,
        "meta_arg_of_pericenter": 105.266,
        "meta_mean_anomaly": 255.474,
        "meta_ephemeris_type": 0,
        "meta_classification_type": "U",
        "meta_norad_cat_id": 30907,
        "meta_element_set_no": 999,
        "meta_rev_at_epoch": 1721,
        "meta_bstar": 0.00089271,
        "meta_mean_motion_dot": 1.706e-05,
        "meta_mean_motion_ddot": 0,
        "tle_line1": "1 30907U 99025AYV 25358.87898397  .00001706  00000+0  89271-3 0  9999",
        "tle_line2": "2 30907  99.9513  20.3271 0056279 105.2660 255.4740 14.15129204 17218"
      },
      "geometry": {
        "type": "Point",
        "coordinates": [
          -112.2561940132165,
          76.11872802778215
        ]
      }
    }
  ]
}